ALOS-2                  
1 39766U 14029A   26077.51078355  .00001808  00000+0  24857-3 0  9998
2 39766  97.9195 175.9802 0001487  93.0566 267.0816 14.79539693638175
YAOGAN-29               
1 41038U 15069A   26077.56582544  .00000743  00000+0  98072-4 0  9991
2 41038  98.0131 106.0187 0001312  22.8057 337.3214 14.83006183557198
ASTRO-H (HITOMI)        
1 41337U 16012A   26077.62389003  .00002588  00000+0  14937-3 0  9990
2 41337  30.9996 298.8917 0009622  60.6828 299.4770 15.10062954553586
HXMT (HUIYAN)           
1 42758U 17034A   26077.40003873  .00004533  00000+0  23012-3 0  9993
2 42758  43.0155 328.2446 0033116 288.9371  70.7889 15.17583981483863
SAOCOM 1A               
1 43641U 18076A   26077.53688637  .00000243  00000+0  37145-4 0  9990
2 43641  97.8892 265.5844 0001437  88.2307 271.9071 14.82149157402678
H-2A R/B                
1 43682U 18084L   26077.56063755  .00014742  00000+0  34781-3 0  9996
2 43682  98.8719 296.8474 0024687 354.8888   5.2098 15.41717347407148
CSS (TIANHE)            
1 48274U 21035A   26077.60901874  .00030981  00000+0  35872-3 0  9991
2 48274  41.4670 153.8729 0006034 328.4724  31.5753 15.61143380279001
CZ-2C R/B               
1 52794U 22058K   26077.57557201  .00027624  00000+0  39611-3 0  9991
2 52794  50.1878 272.5578 0041907 238.7090 120.9774 15.54860214211510
CZ-2C R/B               
1 54039U 22132E   26077.27499836  .00034194  00000+0  37926-3 0  9991
2 54039  97.2952  80.8573 0019743  64.2408 296.0885 15.62634555191715
GSLV R/B                
1 54149U 22138AN  26077.47871046  .00002166  00000+0  18554-3 0  9998
2 54149  87.3877 163.4208 0023888 117.3396 243.0272 14.96834370185243
