CCSDS_OMM_VERS = 2.0
CREATION_DATE  = 
ORIGINATOR     = 

OBJECT_NAME    = ALOS-2
OBJECT_ID      = 2014-029A
CENTER_NAME    = EARTH
REF_FRAME      = TEME
TIME_SYSTEM    = UTC
MEAN_ELEMENT_THEORY = SGP/SGP4

EPOCH          = 2026-03-18T12:15:31.698720
MEAN_MOTION    = 14.79539693
ECCENTRICITY   = .0001487
INCLINATION    = 97.9195
RA_OF_ASC_NODE = 175.9802
ARG_OF_PERICENTER = 93.0566
MEAN_ANOMALY   = 267.0816

EPHEMERIS_TYPE = 0
CLASSIFICATION_TYPE = U
NORAD_CAT_ID   = 39766
ELEMENT_SET_NO = 999
REV_AT_EPOCH   = 63817
BSTAR          = .24857237E-3
MEAN_MOTION_DOT = .1808E-4
MEAN_MOTION_DDOT = 0

CCSDS_OMM_VERS = 2.0
CREATION_DATE  = 
ORIGINATOR     = 

OBJECT_NAME    = YAOGAN-29
OBJECT_ID      = 2015-069A
CENTER_NAME    = EARTH
REF_FRAME      = TEME
TIME_SYSTEM    = UTC
MEAN_ELEMENT_THEORY = SGP/SGP4

EPOCH          = 2026-03-18T13:34:47.318016
MEAN_MOTION    = 14.83006183
ECCENTRICITY   = .00013127
INCLINATION    = 98.0131
RA_OF_ASC_NODE = 106.0187
ARG_OF_PERICENTER = 22.8057
MEAN_ANOMALY   = 337.3214

EPHEMERIS_TYPE = 0
CLASSIFICATION_TYPE = U
NORAD_CAT_ID   = 41038
ELEMENT_SET_NO = 999
REV_AT_EPOCH   = 55719
BSTAR          = .9807213E-4
MEAN_MOTION_DOT = .743E-5
MEAN_MOTION_DDOT = 0

CCSDS_OMM_VERS = 2.0
CREATION_DATE  = 
ORIGINATOR     = 

OBJECT_NAME    = ASTRO-H (HITOMI)
OBJECT_ID      = 2016-012A
CENTER_NAME    = EARTH
REF_FRAME      = TEME
TIME_SYSTEM    = UTC
MEAN_ELEMENT_THEORY = SGP/SGP4

EPOCH          = 2026-03-18T14:58:24.098592
MEAN_MOTION    = 15.10062954
ECCENTRICITY   = .00096222
INCLINATION    = 30.9996
RA_OF_ASC_NODE = 298.8917
ARG_OF_PERICENTER = 60.6828
MEAN_ANOMALY   = 299.4770

EPHEMERIS_TYPE = 0
CLASSIFICATION_TYPE = U
NORAD_CAT_ID   = 41337
ELEMENT_SET_NO = 999
REV_AT_EPOCH   = 55358
BSTAR          = .1493696E-3
MEAN_MOTION_DOT = .2588E-4
MEAN_MOTION_DDOT = 0

CCSDS_OMM_VERS = 2.0
CREATION_DATE  = 
ORIGINATOR     = 

OBJECT_NAME    = HXMT (HUIYAN)
OBJECT_ID      = 2017-034A
CENTER_NAME    = EARTH
REF_FRAME      = TEME
TIME_SYSTEM    = UTC
MEAN_ELEMENT_THEORY = SGP/SGP4

EPOCH          = 2026-03-18T09:36:03.346272
MEAN_MOTION    = 15.17583981
ECCENTRICITY   = .00331161
INCLINATION    = 43.0155
RA_OF_ASC_NODE = 328.2446
ARG_OF_PERICENTER = 288.9371
MEAN_ANOMALY   = 70.7889

EPHEMERIS_TYPE = 0
CLASSIFICATION_TYPE = U
NORAD_CAT_ID   = 42758
ELEMENT_SET_NO = 999
REV_AT_EPOCH   = 48386
BSTAR          = .23012453E-3
MEAN_MOTION_DOT = .4533E-4
MEAN_MOTION_DDOT = 0

CCSDS_OMM_VERS = 2.0
CREATION_DATE  = 
ORIGINATOR     = 

OBJECT_NAME    = SAOCOM 1A
OBJECT_ID      = 2018-076A
CENTER_NAME    = EARTH
REF_FRAME      = TEME
TIME_SYSTEM    = UTC
MEAN_ELEMENT_THEORY = SGP/SGP4

EPOCH          = 2026-03-18T12:53:06.982368
MEAN_MOTION    = 14.82149157
ECCENTRICITY   = .00014376
INCLINATION    = 97.8892
RA_OF_ASC_NODE = 265.5844
ARG_OF_PERICENTER = 88.2307
MEAN_ANOMALY   = 271.9071

EPHEMERIS_TYPE = 0
CLASSIFICATION_TYPE = U
NORAD_CAT_ID   = 43641
ELEMENT_SET_NO = 999
REV_AT_EPOCH   = 40267
BSTAR          = .37144928E-4
MEAN_MOTION_DOT = .243E-5
MEAN_MOTION_DDOT = 0

CCSDS_OMM_VERS = 2.0
CREATION_DATE  = 
ORIGINATOR     = 

OBJECT_NAME    = H-2A R/B
OBJECT_ID      = 2018-084L
CENTER_NAME    = EARTH
REF_FRAME      = TEME
TIME_SYSTEM    = UTC
MEAN_ELEMENT_THEORY = SGP/SGP4

EPOCH          = 2026-03-18T13:27:19.084320
MEAN_MOTION    = 15.41717347
ECCENTRICITY   = .00246877
INCLINATION    = 98.8719
RA_OF_ASC_NODE = 296.8474
ARG_OF_PERICENTER = 354.8888
MEAN_ANOMALY   = 5.2098

EPHEMERIS_TYPE = 0
CLASSIFICATION_TYPE = U
NORAD_CAT_ID   = 43682
ELEMENT_SET_NO = 999
REV_AT_EPOCH   = 40714
BSTAR          = .34781057E-3
MEAN_MOTION_DOT = .14742E-3
MEAN_MOTION_DDOT = 0

CCSDS_OMM_VERS = 2.0
CREATION_DATE  = 
ORIGINATOR     = 

OBJECT_NAME    = CSS (TIANHE)
OBJECT_ID      = 2021-035A
CENTER_NAME    = EARTH
REF_FRAME      = TEME
TIME_SYSTEM    = UTC
MEAN_ELEMENT_THEORY = SGP/SGP4

EPOCH          = 2026-03-18T14:36:59.219136
MEAN_MOTION    = 15.61143380
ECCENTRICITY   = .00060343
INCLINATION    = 41.4670
RA_OF_ASC_NODE = 153.8729
ARG_OF_PERICENTER = 328.4724
MEAN_ANOMALY   = 31.5753

EPHEMERIS_TYPE = 0
CLASSIFICATION_TYPE = U
NORAD_CAT_ID   = 48274
ELEMENT_SET_NO = 999
REV_AT_EPOCH   = 27900
BSTAR          = .35871696E-3
MEAN_MOTION_DOT = .30981E-3
MEAN_MOTION_DDOT = 0

CCSDS_OMM_VERS = 2.0
CREATION_DATE  = 
ORIGINATOR     = 

OBJECT_NAME    = CZ-2C R/B
OBJECT_ID      = 2022-058K
CENTER_NAME    = EARTH
REF_FRAME      = TEME
TIME_SYSTEM    = UTC
MEAN_ELEMENT_THEORY = SGP/SGP4

EPOCH          = 2026-03-18T13:48:49.421664
MEAN_MOTION    = 15.54860214
ECCENTRICITY   = .0041907
INCLINATION    = 50.1878
RA_OF_ASC_NODE = 272.5578
ARG_OF_PERICENTER = 238.7090
MEAN_ANOMALY   = 120.9774

EPHEMERIS_TYPE = 0
CLASSIFICATION_TYPE = U
NORAD_CAT_ID   = 52794
ELEMENT_SET_NO = 999
REV_AT_EPOCH   = 21151
BSTAR          = .39610812E-3
MEAN_MOTION_DOT = .27624E-3
MEAN_MOTION_DDOT = 0

CCSDS_OMM_VERS = 2.0
CREATION_DATE  = 
ORIGINATOR     = 

OBJECT_NAME    = CZ-2C R/B
OBJECT_ID      = 2022-132E
CENTER_NAME    = EARTH
REF_FRAME      = TEME
TIME_SYSTEM    = UTC
MEAN_ELEMENT_THEORY = SGP/SGP4

EPOCH          = 2026-03-18T06:35:59.858304
MEAN_MOTION    = 15.62634555
ECCENTRICITY   = .0019743
INCLINATION    = 97.2952
RA_OF_ASC_NODE = 80.8573
ARG_OF_PERICENTER = 64.2408
MEAN_ANOMALY   = 296.0885

EPHEMERIS_TYPE = 0
CLASSIFICATION_TYPE = U
NORAD_CAT_ID   = 54039
ELEMENT_SET_NO = 999
REV_AT_EPOCH   = 19171
BSTAR          = .37926E-3
MEAN_MOTION_DOT = .34194E-3
MEAN_MOTION_DDOT = 0

CCSDS_OMM_VERS = 2.0
CREATION_DATE  = 
ORIGINATOR     = 

OBJECT_NAME    = GSLV R/B
OBJECT_ID      = 2022-138AN
CENTER_NAME    = EARTH
REF_FRAME      = TEME
TIME_SYSTEM    = UTC
MEAN_ELEMENT_THEORY = SGP/SGP4

EPOCH          = 2026-03-18T11:29:20.583744
MEAN_MOTION    = 14.96834370
ECCENTRICITY   = .0023888
INCLINATION    = 87.3877
RA_OF_ASC_NODE = 163.4208
ARG_OF_PERICENTER = 117.3396
MEAN_ANOMALY   = 243.0272

EPHEMERIS_TYPE = 0
CLASSIFICATION_TYPE = U
NORAD_CAT_ID   = 54149
ELEMENT_SET_NO = 999
REV_AT_EPOCH   = 18524
BSTAR          = .18553644E-3
MEAN_MOTION_DOT = .2166E-4
MEAN_MOTION_DDOT = 0

